
# Worst residual: 2.89 km
# MJD 58055.000000 (2017 Oct 29  0:00)
2011-037A = Spektr-R = NORAD 37755
1 37755U 11037A   17302.49919926  .00000000  00000-0  00000-0 2  3548
2 37755 066.6017 303.0453 7040493 357.0725 087.7613 00.10974308    03

# Worst residual: 4.43 km
# MJD 58056.000000 (2017 Oct 30  0:00)
2011-037A = Spektr-R = NORAD 37755
1 37755U 11037A   17303.49919926  .00000000  00000-0  00000-0 2  3549
2 37755 066.5637 303.0618 7039024 357.0966 127.1837 00.10967954    04

# Worst residual: 5.64 km
# MJD 58057.000000 (2017 Oct 31  0:00)
2011-037A = Spektr-R = NORAD 37755
1 37755U 11037A   17304.49919926  .00000000  00000-0  00000-0 2  3540
2 37755 066.4711 303.0818 7036414 357.0987 166.6451 00.10964812    01

# Worst residual: 7.84 km
# MJD 58058.000000 (2017 Nov  1  0:00)
2011-037A = Spektr-R = NORAD 37755
1 37755U 11037A   17305.49919926  .00000000  00000-0  00000-0 2  3541
2 37755 066.3295 303.0861 7032130 357.0815 206.1666 00.10960344    00

# Worst residual: 10.71 km
# MJD 58059.000000 (2017 Nov  2  0:00)
2011-037A = Spektr-R = NORAD 37755
1 37755U 11037A   17306.49919926  .00000000  00000-0  00000-0 2  3542
2 37755 066.1657 303.0600 7026462 357.0399 245.7372 00.10950105    06

# Worst residual: 11.80 km
# MJD 58060.000000 (2017 Nov  3  0:00)
2011-037A = Spektr-R = NORAD 37755
1 37755U 11037A   17307.49919926  .00000000  00000-0  00000-0 2  3543
2 37755 066.0206 303.0021 7021184 356.9683 285.3015 00.10930304    05

# Worst residual: 9.83 km
# MJD 58061.000000 (2017 Nov  4  0:00)
2011-037A = Spektr-R = NORAD 37755
1 37755U 11037A   17308.49919926  .00000000  00000-0  00000-0 2  3544
2 37755 065.9352 302.9304 7019187 356.8832 324.7484 00.10901976    03

# Worst residual: 3.86 km
# MJD 58062.000000 (2017 Nov  5  0:00)
2011-037A = Spektr-R = NORAD 37755
1 37755U 11037A   17309.49919926  .00000000  00000-0  00000-0 2  3545
2 37755 065.9278 302.8912 7018827 356.8572 003.9951 00.10894312    05

# Worst residual: 22.75 km
# MJD 58063.000000 (2017 Nov  6  0:00)
2011-037A = Spektr-R = NORAD 37755
1 37755U 11037A   17310.49919926  .00000000  00000-0  00000-0 2  3547
2 37755 065.9549 302.8058 7020571 356.9770 043.1001 00.10867488    03

# Worst residual: 74.74 km
# MJD 58064.000000 (2017 Nov  7  0:00)
2011-037A = Spektr-R = NORAD 37755
1 37755U 11037A   17311.49919926  .00000000  00000-0  00000-0 2  3548
2 37755 066.3743 302.4209 7030890 357.3060 081.6070 00.10805349    01

# Worst residual: 223.41 km
# MJD 58065.000000 (2017 Nov  8  0:00)
2011-037A = Spektr-R = NORAD 37755
1 37755U 11037A   17312.49919926  .00000000  00000-0  00000-0 2  3549
2 37755 067.8230 301.7162 7134299 357.8406 117.8685 00.10738077    02

# Worst residual: 281.66 km
# MJD 58066.000000 (2017 Nov  9  0:00)
2011-037A = Spektr-R = NORAD 37755
1 37755U 11037A   17313.49919926  .00000000  00000-0  00000-0 2  3540
2 37755 067.8055 301.6573 7523363 358.0899 151.2700 00.10913313    03

# Worst residual: 98.89 km
# MJD 58067.000000 (2017 Nov 10  0:00)
2011-037A = Spektr-R = NORAD 37755
1 37755U 11037A   17314.49919926  .00000000  00000-0  00000-0 2  3541
2 37755 065.1383 301.8884 7736729 358.1347 189.3518 00.11093352    08

# Worst residual: 37.00 km
# MJD 58068.000000 (2017 Nov 11  0:00)
2011-037A = Spektr-R = NORAD 37755
1 37755U 11037A   17315.49919926  .00000000  00000-0  00000-0 2  3542
2 37755 063.7014 301.7964 7785770 358.2067 229.5840 00.11134979    07

# Worst residual: 19.86 km
# MJD 58069.000000 (2017 Nov 12  0:00)
2011-037A = Spektr-R = NORAD 37755
1 37755U 11037A   17316.49919926  .00000000  00000-0  00000-0 2  3543
2 37755 063.0625 301.6415 7800710 358.2542 270.0195 00.11129996    05

# Worst residual: 11.67 km
# MJD 58070.000000 (2017 Nov 13  0:00)
2011-037A = Spektr-R = NORAD 37755
1 37755U 11037A   17317.49919926  .00000000  00000-0  00000-0 2  3544
2 37755 062.7905 301.5057 7806951 358.2795 310.2852 00.11107936    03

# Worst residual: 3.38 km
# MJD 58071.000000 (2017 Nov 14  0:00)
2011-037A = Spektr-R = NORAD 37755
1 37755U 11037A   17318.49919926  .00000000  00000-0  00000-0 2  3545
2 37755 062.7234 301.4304 7809673 358.2940 350.3041 00.11089481    07

# Worst residual: 8.44 km
# MJD 58072.000000 (2017 Nov 15  0:00)
2011-037A = Spektr-R = NORAD 37755
1 37755U 11037A   17319.49919926  .00000000  00000-0  00000-0 2  3546
2 37755 062.7287 301.4006 7810198 358.2975 030.2237 00.11088586    02

# Worst residual: 13.40 km
# MJD 58073.000000 (2017 Nov 16  0:00)
2011-037A = Spektr-R = NORAD 37755
1 37755U 11037A   17320.49919926  .00000000  00000-0  00000-0 2  3548
2 37755 062.8240 301.3167 7813747 358.2635 070.2272 00.11104401    03

# Worst residual: 14.79 km
# MJD 58074.000000 (2017 Nov 17  0:00)
2011-037A = Spektr-R = NORAD 37755
1 37755U 11037A   17321.49919926  .00000000  00000-0  00000-0 2  3549
2 37755 063.0165 301.2276 7823966 358.2150 110.3128 00.11122177    04

# Worst residual: 14.19 km
# MJD 58075.000000 (2017 Nov 18  0:00)
2011-037A = Spektr-R = NORAD 37755
1 37755U 11037A   17322.49919926  .00000000  00000-0  00000-0 2  3540
2 37755 063.2575 301.1683 7839165 358.1797 150.4393 00.11139236    09

# Worst residual: 12.23 km
# MJD 58076.000000 (2017 Nov 19  0:00)
2011-037A = Spektr-R = NORAD 37755
1 37755U 11037A   17323.49919926  .00000000  00000-0  00000-0 2  3541
2 37755 063.4929 301.1490 7856588 358.1724 190.5916 00.11155834    06

# Worst residual: 9.39 km
# MJD 58077.000000 (2017 Nov 20  0:00)
2011-037A = Spektr-R = NORAD 37755
1 37755U 11037A   17324.49919926  .00000000  00000-0  00000-0 2  3542
2 37755 063.6796 301.1620 7873478 358.1988 230.7736 00.11172180    04

# Worst residual: 6.23 km
# MJD 58078.000000 (2017 Nov 21  0:00)
2011-037A = Spektr-R = NORAD 37755
1 37755U 11037A   17325.49919926  .00000000  00000-0  00000-0 2  3543
2 37755 063.7920 301.1887 7887328 358.2563 270.9991 00.11187717    09
